KUIPER-00136            
1 65962U 25228R   26017.91670139  .00027958  00000+0  33445-2 0  9990
2 65962  51.8986 212.8102 0004167 181.2843  51.7377 14.83935821  5580
KUIPER-00137            
1 65963U 25228S   26017.91670139  .00008585  00000+0  85959-3 0  9994
2 65963  51.8960 210.6133 0004025 152.6819 244.5806 14.92075876  5800
KUIPER-00138            
1 65964U 25228T   26017.91670139 -.00922517  00000+0 -71408-1 0  9999
2 65964  51.9137 208.8832 0007520 166.5827 358.5140 15.03974430  5915
KUIPER-00140            
1 65965U 25228U   26017.91670139  .00012663  00000+0  12369-2 0  9992
2 65965  51.8949 210.7863 0004605 168.7156  23.9329 14.92680627  5889
KUIPER-00141            
1 65966U 25228V   26017.91670139  .00038915  00000+0  24062-2 0  9994
2 65966  51.8876 207.5535 0001862 220.5241 163.2171 15.09467310  5090
KUIPER-00146            
1 65967U 25228W   26017.91670139 -.01580442  00000+0 -13325+0 0  9992
2 65967  51.8920 208.9492 0003149 185.3906 216.1720 15.00964575  5076
KUIPER-00149            
1 65968U 25228X   26017.91670139 -.01060236  00000+0 -51974-1 0  9991
2 65968  51.8859 206.4353 0004987 156.4630 128.0140 15.20670617  5790
KUIPER-00154            
1 65969U 25228Y   26017.91670139 -.00717984  00000+0 -26121-1 0  9996
2 65969  51.8781 205.9516 0005675 131.7004  27.0430 15.30324348  5761
